[{"OBJECT_NAME":"STARLINK-3565","OBJECT_ID":"2022-022AL","EPOCH":"2026-03-09T02:34:47.129952","MEAN_MOTION":15.08833739,"ECCENTRICITY":0.00014367,"INCLINATION":53.2191,"RA_OF_ASC_NODE":1.7334,"ARG_OF_PERICENTER":89.0642,"MEAN_ANOMALY":271.0515,"EPHEMERIS_TYPE":0,"CLASSIFICATION_TYPE":"U","NORAD_CAT_ID":51886,"ELEMENT_SET_NO":999,"REV_AT_EPOCH":22316,"BSTAR":-0.00010750613,"MEAN_MOTION_DOT":-1.998e-5,"MEAN_MOTION_DDOT":0},{"OBJECT_NAME":"ONEWEB-0618","OBJECT_ID":"2023-004V","EPOCH":"2026-03-09T21:27:12.326688","MEAN_MOTION":15.11974897,"ECCENTRICITY":0.00107842,"INCLINATION":86.9069,"RA_OF_ASC_NODE":217.8931,"ARG_OF_PERICENTER":307.7231,"MEAN_ANOMALY":52.303,"EPHEMERIS_TYPE":0,"CLASSIFICATION_TYPE":"U","NORAD_CAT_ID":55159,"ELEMENT_SET_NO":999,"REV_AT_EPOCH":16725,"BSTAR":0.00049587895,"MEAN_MOTION_DOT":8.547e-5,"MEAN_MOTION_DDOT":0}]
